QIANFAN-60              
1 62790U 25016F   25237.77706431  .00000109  00000+0  15117-3 0  9999
2 62790  88.9790 114.3558 0013959 305.1449  54.8393 13.50961887 32518
QIANFAN-61              
1 62791U 25016G   25237.93768163  .00000105  00000+0  14488-3 0  9994
2 62791  88.9857 114.4231 0013364 303.3145  56.6726 13.50967564 32557
QIANFAN-62              
1 62792U 25016H   25237.94169662  .00000117  00000+0  16223-3 0  9997
2 62792  88.9804 114.3500 0014755 303.1822  56.7914 13.50961574 32547
QIANFAN-63              
1 62793U 25016J   25237.95410352  .00000109  00000+0  15123-3 0  9993
2 62793  88.9810 114.2901 0014686 308.1602  51.8225 13.50958646 32584
QIANFAN-64              
1 62794U 25016K   25237.94579915  .00000116  00000+0  16195-3 0  9992
2 62794  88.9797 114.2856 0012360 302.1534  57.8417 13.50961173 32570
QIANFAN-65              
1 62795U 25016L   25237.92940719  .00000100  00000+0  13674-3 0  9997
2 62795  88.9793 114.3142 0012595 304.2340  55.7617 13.50965110 32556
QIANFAN-66              
1 62796U 25016M   25237.88408177  .00000107  00000+0  14762-3 0  9996
2 62796  88.9813 114.2677 0013596 298.9842  60.9946 13.50960297 32598
QIANFAN-67              
1 62797U 25016N   25237.88817886  .00000101  00000+0  13779-3 0  9999
2 62797  88.9803 114.3034 0013750 306.5259  53.4625 13.50968935 32561
QIANFAN-68              
1 62798U 25016P   25237.89227332  .00000101  00000+0  13873-3 0  9997
2 62798  88.9806 114.3473 0014331 304.4109  55.5687 13.50966420 32545
QIANFAN-69              
1 62799U 25016Q   25237.89640479  .00000093  00000+0  12588-3 0  9991
2 62799  88.9785 114.2368 0014522 305.4033  54.5761 13.50961905 32582
QIANFAN-70              
1 62800U 25016R   25237.91288154  .00000116  00000+0  16197-3 0  9991
2 62800  88.9806 114.3504 0013870 294.9568  65.0142 13.50965816 32543
QIANFAN-71              
1 62801U 25016S   25237.90884786  .00000108  00000+0  14881-3 0  9993
2 62801  88.9800 114.3371 0014535 309.2116  50.7744 13.50965501 32548
QIANFAN-72              
1 62802U 25016T   25237.90464739  .00000108  00000+0  14827-3 0  9996
2 62802  88.9790 114.3566 0018130 314.9221  45.0458 13.50960949 32537
QIANFAN-73              
1 63159U 25046A   25237.87830518  .00000170  00000+0  24490-3 0  9999
2 63159  88.9863 331.2540 0016847  82.4207 277.8858 13.50965112 32716
QIANFAN-74              
1 63160U 25046B   25237.78772776  .00000155  00000+0  22152-3 0  9998
2 63160  88.9863 331.1517 0002057 109.1459 250.9915 13.50970448 32764
QIANFAN-75              
1 63161U 25046C   25237.92361299  .00000178  00000+0  25612-3 0  9998
2 63161  88.9864 331.3698 0018026  84.9911 275.3297 13.50966561 32657
QIANFAN-76              
1 63162U 25046D   25237.91938443  .00000166  00000+0  23900-3 0  9994
2 63162  88.9864 331.3513 0015607  86.1081 274.1854 13.50963416 32661
QIANFAN-77              
1 63163U 25046E   25237.88396584  .00000358  00000+0  25129-3 0  9993
2 63163  88.9860 330.2552 0016447  66.3982 293.8920 13.96023255 33269
QIANFAN-78              
1 63164U 25046F   25237.88655013  .00000177  00000+0  25566-3 0  9993
2 63164  88.9863 331.2199 0017014  87.9477 272.3623 13.50966530 32735
QIANFAN-79              
1 63165U 25046G   25237.91523062  .00000170  00000+0  24493-3 0  9997
2 63165  88.9867 331.3202 0016668  86.4564 273.8494 13.50968654 32686
QIANFAN-80              
1 63166U 25046H   25237.78367364  .00000154  00000+0  22010-3 0  9999
2 63166  88.9864 331.0436 0015728  90.7567 269.5386 13.50968451 32820
QIANFAN-81              
1 63167U 25046J   25237.91120964  .00000168  00000+0  24066-3 0  9996
2 63167  88.9864 331.0990 0016527  79.9857 280.3158 13.50967110 32790
QIANFAN-82              
1 63168U 25046K   25237.86997347  .00000170  00000+0  24406-3 0  9999
2 63168  88.9864 331.1467 0014817  87.5329 272.7519 13.50964192 32771
QIANFAN-83              
1 63169U 25046L   25237.89326139  .00000199  00000+0  24243-3 0  9998
2 63169  88.9863 331.1340 0015974  79.3741 280.9215 13.61940064 32782
QIANFAN-84              
1 63170U 25046M   25237.89871982  .00000082  00000+0  10800-3 0  9996
2 63170  88.9864 331.2768 0017719  83.5427 276.7741 13.50970645 32702
QIANFAN-85              
1 63171U 25046N   25237.89476578  .00000173  00000+0  24866-3 0  9997
2 63171  88.9863 331.1494 0015144  86.4444 273.8439 13.50965093 32778
QIANFAN-86              
1 63172U 25046P   25237.90298604  .00000163  00000+0  23424-3 0  9990
2 63172  88.9865 331.0082 0013091  90.7799 269.4852 13.50965625 32853
QIANFAN-87              
1 63173U 25046Q   25237.87412346  .00000170  00000+0  24453-3 0  9999
2 63173  88.9862 331.1269 0013728  86.1937 274.0784 13.50962371 32782
QIANFAN-88              
1 63174U 25046R   25237.89066459  .00000177  00000+0  25500-3 0  9993
2 63174  88.9864 331.0771 0014218  92.9851 267.2927 13.50969589 32812
QIANFAN-89              
1 63175U 25046S   25237.92756640  .00000173  00000+0  24877-3 0  9998
2 63175  88.9864 331.2622 0018393  83.8054 276.5192 13.50970333 32717
QIANFAN-90              
1 63176U 25046T   25237.88230602  .00000151  00000+0  21527-3 0  9994
2 63176  88.9864 331.2391 0015305  83.0182 277.2709 13.50969370 32727
